{"type": "FeatureCollection", "features": [ {"type": "Feature", "properties": {"norad_id": 61183, "name": "GSAT0226 (GALILEO 31)", "group": "galileo", "lat": -19.46253753967223, "lon": 60.77721364723719, "alt_km": 23224.43690090182, "timestamp": "2025-12-07T14:37:05.468050+00:00", "meta": {"OBJECT_NAME": "GSAT0226 (GALILEO 31)", "OBJECT_ID": "2024-167B", "EPOCH": "2025-12-06T09:26:36.340224", "MEAN_MOTION": 1.70473292, "ECCENTRICITY": 7.913e-05, "INCLINATION": 55.2417, "RA_OF_ASC_NODE": 226.6105, "ARG_OF_PERICENTER": 126.2936, "MEAN_ANOMALY": 51.6212, "EPHEMERIS_TYPE": 0, "CLASSIFICATION_TYPE": "U", "NORAD_CAT_ID": 61183, "ELEMENT_SET_NO": 999, "REV_AT_EPOCH": 756, "BSTAR": 0, "MEAN_MOTION_DOT": 3.3e-07, "MEAN_MOTION_DDOT": 0}, "tle": {"line1": "1 61183U 24167B   25340.39347616  .00000033  00000+0  00000+0 0  9996", "line2": "2 61183  55.2417 226.6105 0000791 126.2936  51.6212  1.70473292  7563"}}, "geometry": {"type": "Point", "coordinates": [60.77721364723719, -19.46253753967223]}}]}